NORAD_CAT_ID,OBJECT_NAME,OBJECT_TYPE,EPOCH,MEAN_MOTION,ECCENTRICITY,INCLINATION,RA_OF_ASC_NODE,ARG_OF_PERICENTER,MEAN_ANOMALY,BSTAR,MEAN_MOTION_DOT,MEAN_MOTION_DDOT,TLE_LINE0,TLE_LINE1,TLE_LINE2,SEMIMAJOR_AXIS,PERIOD,APOGEE,PERIGEE,DECAYED
55673.0,STARLINK-5463,PAYLOAD,2024-06-13 13:58:42,14.98343841,0.0002832,70.0,323.1737,272.2726,87.8109,-8.782e-05,-1.141e-05,0.0,0 STARLINK-5463,1 55673U 23021AX  24165.58243579 -.00001141  00000-0 -87820-4 0  9993,2 55673  70.0000 323.1737 0002832 272.2726  87.8109 14.98343841 74306,6950.15,96.106,573.983,570.047,0.0
55673.0,STARLINK-5463,PAYLOAD,2024-06-13 20:23:14,14.98338245,0.0003026,70.0001,322.5004,271.0684,89.0129,0.00010087,1.111e-05,0.0,0 STARLINK-5463,1 55673U 23021AX  24165.84947467  .00001111  00000-0  10087-3 0  9994,2 55673  70.0001 322.5004 0003026 271.0684  89.0129 14.98338245 74345,6950.167,96.106,574.136,569.929,0.0
55673.0,STARLINK-5463,PAYLOAD,2024-06-14 14:00:44,14.98323719,0.0002947,70.0004,320.6486,271.64,88.4422,8.1135e-05,8.75e-06,0.0,0 STARLINK-5463,1 55673U 23021AX  24166.58384516  .00000875  00000-0  81135-4 0  9995,2 55673  70.0004 320.6486 0002947 271.6400  88.4422 14.98323719 74455,6950.212,96.107,574.126,570.029,0.0
55673.0,STARLINK-5463,PAYLOAD,2024-06-14 20:25:16,14.98329113,0.0002931,70.0005,319.9753,271.4314,88.6509,0.00010543,1.165e-05,0.0,0 STARLINK-5463,1 55673U 23021AX  24166.85088161  .00001165  00000-0  10543-3 0  9999,2 55673  70.0005 319.9753 0002931 271.4314  88.6509 14.98329113 74495,6950.196,96.107,574.098,570.024,0.0
55673.0,STARLINK-5463,PAYLOAD,2024-06-15 14:02:44,14.9833853,0.00029,70.0005,318.1238,271.5287,88.554,4.792e-05,4.79e-06,0.0,0 STARLINK-5463,1 55673U 23021AX  24167.58523558  .00000479  00000-0  47920-4 0  9991,2 55673  70.0005 318.1238 0002900 271.5287  88.5540 14.98338530 74600,6950.167,96.106,574.047,570.016,0.0
55673.0,STARLINK-5463,PAYLOAD,2024-06-15 20:27:16,14.98342959,0.000285,70.0006,317.4507,271.2746,88.8087,9.95e-05,1.095e-05,0.0,0 STARLINK-5463,1 55673U 23021AX  24167.85226986  .00001095  00000-0  99500-4 0  9992,2 55673  70.0006 317.4507 0002850 271.2746  88.8087 14.98342959 74646,6950.153,96.106,573.999,570.037,0.0
55673.0,STARLINK-5463,PAYLOAD,2024-06-16 14:04:45,14.98330319,0.0002793,70.0007,315.5994,270.4322,89.6517,3.507e-05,3.26e-06,0.0,0 STARLINK-5463,1 55673U 23021AX  24168.58663769  .00000326  00000-0  35070-4 0  9995,2 55673  70.0007 315.5994 0002793 270.4322  89.6517 14.98330319 74759,6950.192,96.107,573.998,570.116,0.0
55673.0,STARLINK-5463,PAYLOAD,2024-06-16 18:53:09,14.98328827,0.0002684,70.001,315.0948,264.691,95.3943,5.3351e-05,5.44e-06,0.0,0 STARLINK-5463,1 55673U 23021AX  24168.78691775  .00000544  00000-0  53351-4 0  9999,2 55673  70.0010 315.0948 0002684 264.6910  95.3943 14.98328827 74785,6950.197,96.107,573.927,570.196,0.0
55673.0,STARLINK-5463,PAYLOAD,2024-06-17 20:31:18,14.98330513,0.0002803,70.0006,312.401,266.4224,93.6615,-3.2022e-05,-4.75e-06,0.0,0 STARLINK-5463,1 55673U 23021AX  24169.85507764 -.00000475  00000-0 -32022-4 0  9999,2 55673  70.0006 312.4010 0002803 266.4224  93.6615 14.98330513 74942,6950.191,96.107,574.004,570.108,0.0
55673.0,STARLINK-5463,PAYLOAD,2024-06-18 12:32:39,14.98330951,0.0002947,70.0,310.7169,269.6481,90.434,-6.7387e-06,-1.73e-06,0.0,0 STARLINK-5463,1 55673U 23021AX  24170.52267635 -.00000173  00000-0 -67387-5 0  9993,2 55673  70.0000 310.7169 0002947 269.6481  90.4340 14.98330951 74745,6950.19,96.107,574.103,570.007,0.0
55673.0,STARLINK-5463,PAYLOAD,2024-06-18 14:08:47,14.9832718,0.0003058,70.0,310.5486,268.6418,91.4391,6.362e-05,6.66e-06,0.0,0 STARLINK-5463,1 55673U 23021AX  24170.58943700  .00000666  00000-0  63620-4 0  9993,2 55673  70.0000 310.5486 0003058 268.6418  91.4391 14.98327180 75050,6950.202,96.107,574.192,569.941,0.0
55673.0,STARLINK-5463,PAYLOAD,2024-06-18 18:57:11,14.98331844,0.0003069,70.0,310.0434,267.7485,92.3322,4.9922e-05,5.03e-06,0.0,0 STARLINK-5463,1 55673U 23021AX  24170.78971427  .00000503  00000-0  49922-4 0  9991,2 55673  70.0000 310.0434 0003069 267.7485  92.3322 14.98331844 75083,6950.187,96.107,574.185,569.919,0.0
55673.0,STARLINK-5463,PAYLOAD,2024-06-19 12:34:40,14.98329083,0.0003144,69.9997,308.1909,267.4815,92.5984,4.7496e-05,4.74e-06,0.0,0 STARLINK-5463,1 55673U 23021AX  24171.52407616  .00000474  00000-0  47496-4 0  9999,2 55673  69.9997 308.1909 0003144 267.4815  92.5984 14.98329083 74894,6950.196,96.107,574.246,569.876,0.0
55673.0,STARLINK-5463,PAYLOAD,2024-06-19 14:10:48,14.98329135,0.0003148,69.9998,308.0226,267.5135,92.5663,4.6929e-05,4.67e-06,0.0,0 STARLINK-5463,1 55673U 23021AX  24171.59083619  .00000467  00000-0  46929-4 0  9991,2 55673  69.9998 308.0226 0003148 267.5135  92.5663 14.98329135 75204,6950.196,96.107,574.248,569.873,0.0
55673.0,STARLINK-5463,PAYLOAD,2024-06-19 18:59:12,14.9833205,0.0003143,70.0,307.5178,267.7489,92.331,7.6306e-05,8.18e-06,0.0,0 STARLINK-5463,1 55673U 23021AX  24171.79111365  .00000818  00000-0  76306-4 0  9995,2 55673  70.0000 307.5178 0003143 267.7489  92.3310 14.98332050 75230,6950.187,96.107,574.236,569.867,0.0
55673.0,STARLINK-5463,PAYLOAD,2024-06-20 14:12:48,14.98343498,0.0003029,70.0001,305.4993,272.6871,87.3942,-0.00022985,-2.835e-05,0.0,0 STARLINK-5463,1 55673U 23021AX  24172.59223369 -.00002835  00000-0 -22985-3 0  9998,2 55673  70.0001 305.4993 0003029 272.6871  87.3942 14.98343498 75352,6950.151,96.106,574.121,569.911,0.0
55673.0,STARLINK-5463,PAYLOAD,2024-06-20 19:01:13,14.9833501,0.0003191,70.0001,304.9943,270.7465,89.3329,3.5832e-05,3.35e-06,0.0,0 STARLINK-5463,1 55673U 23021AX  24172.79251309  .00000335  00000-0  35832-4 0  9992,2 55673  70.0001 304.9943 0003191 270.7465  89.3329 14.98335010 75081,6950.177,96.107,574.26,569.825,0.0
55673.0,STARLINK-5463,PAYLOAD,2024-06-21 14:14:50,14.98330374,0.0003071,70.0005,302.9743,271.6965,88.3842,2.3146e-05,1.83e-06,0.0,0 STARLINK-5463,1 55673U 23021AX  24173.59363626  .00000183  00000-0  23146-4 0  9993,2 55673  70.0005 302.9743 0003071 271.6965  88.3842 14.98330374 75507,6950.192,96.107,574.191,569.922,0.0
55673.0,STARLINK-5463,PAYLOAD,2024-06-21 19:03:14,14.98332781,0.0003049,70.0006,302.4694,271.7218,88.3592,5.2936e-05,5.39e-06,0.0,0 STARLINK-5463,1 55673U 23021AX  24173.79391373  .00000539  00000-0  52936-4 0  9999,2 55673  70.0006 302.4694 0003049 271.7218  88.3592 14.98332781 75231,6950.184,96.107,574.168,569.93,0.0
55673.0,STARLINK-5463,PAYLOAD,2024-06-22 14:16:51,14.9833022,0.0002992,70.0008,300.4496,272.0069,88.0748,2.8134e-05,2.43e-06,0.0,0 STARLINK-5463,1 55673U 23021AX  24174.59503598  .00000243  00000-0  28134-4 0  9997,2 55673  70.0008 300.4496 0002992 272.0069  88.0748 14.98330220 75657,6950.192,96.107,574.137,569.978,0.0
55673.0,STARLINK-5463,PAYLOAD,2024-06-22 17:29:07,14.9832968,0.0002944,70.0009,300.1137,266.7323,93.3499,2.8524e-05,2.47e-06,0.0,0 STARLINK-5463,1 55673U 23021AX  24174.72855602  .00000247  00000-0  28524-4 0  9995,2 55673  70.0009 300.1137 0002944 266.7323  93.3499 14.98329680 75679,6950.194,96.107,574.105,570.013,0.0
55673.0,STARLINK-5463,PAYLOAD,2024-06-23 12:42:43,14.98329579,0.0002993,70.0009,298.094,264.8389,95.2429,1.6336e-05,1.02e-06,0.0,0 STARLINK-5463,1 55673U 23021AX  24175.52967591  .00000102  00000-0  16336-4 0  9993,2 55673  70.0009 298.0940 0002993 264.8389  95.2429 14.98329579 75492,6950.194,96.107,574.139,569.979,0.0
55673.0,STARLINK-5463,PAYLOAD,2024-06-23 17:31:08,14.98330668,0.0002976,70.0009,297.589,264.4796,95.6023,2.8528e-05,2.47e-06,0.0,0 STARLINK-5463,1 55673U 23021AX  24175.72995489  .00000247  00000-0  28528-4 0  9998,2 55673  70.0009 297.5890 0002976 264.4796  95.6023 14.98330668 75821,6950.191,96.107,574.124,569.987,0.0
55673.0,STARLINK-5463,PAYLOAD,2024-06-24 12:44:44,14.98332812,0.0003033,70.0008,295.569,263.0945,96.9869,6.659e-05,7.02e-06,0.0,0 STARLINK-5463,1 55673U 23021AX  24176.53107144  .00000702  00000-0  66590-4 0  9998,2 55673  70.0008 295.5690 0003033 263.0945  96.9869 14.98332812 75647,6950.184,96.107,574.157,569.941,0.0
55673.0,STARLINK-5463,PAYLOAD,2024-06-24 14:20:52,14.98332572,0.0003038,70.0009,295.4007,263.1888,96.8925,6.3053e-05,6.59e-06,0.0,0 STARLINK-5463,1 55673U 23021AX  24176.59783162  .00000659  00000-0  63053-4 0  9996,2 55673  70.0009 295.4007 0003038 263.1888  96.8925 14.98332572 75950,6950.185,96.107,574.161,569.938,0.0
55673.0,STARLINK-5463,PAYLOAD,2024-06-24 17:33:08,14.98334716,0.0003008,70.001,295.0643,262.7466,97.3351,8.7164e-05,9.47e-06,0.0,0 STARLINK-5463,1 55673U 23021AX  24176.73134934  .00000947  00000-0  87164-4 0  9998,2 55673  70.0010 295.0643 0003008 262.7466  97.3351 14.98334716 75971,6950.178,96.107,574.134,569.953,0.0
55673.0,STARLINK-5463,PAYLOAD,2024-06-25 12:46:45,14.98330729,0.0002986,70.0012,293.0457,259.4309,100.6514,2.2371e-05,1.74e-06,0.0,0 STARLINK-5463,1 55673U 23021AX  24177.53247222  .00000174  00000-0  22371-4 0  9993,2 55673  70.0012 293.0457 0002986 259.4309 100.6514 14.98330729 75796,6950.191,96.107,574.131,569.98,0.0
55673.0,STARLINK-5463,PAYLOAD,2024-06-25 14:22:53,14.98330552,0.0002993,70.0012,292.8775,259.889,100.1932,1.8795e-05,1.31e-06,0.0,0 STARLINK-5463,1 55673U 23021AX  24177.59923242  .00000131  00000-0  18795-4 0  9990,2 55673  70.0012 292.8775 0002993 259.8890 100.1932 14.98330552 76102,6950.191,96.107,574.136,569.976,0.0
55673.0,STARLINK-5463,PAYLOAD,2024-06-25 17:35:09,14.98331187,0.0002994,70.0012,292.5409,260.7013,99.3807,2.4382e-05,1.98e-06,0.0,0 STARLINK-5463,1 55673U 23021AX  24177.73275180  .00000198  00000-0  24382-4 0  9999,2 55673  70.0012 292.5409 0002994 260.7013  99.3807 14.98331187 76129,6950.189,96.107,574.135,569.973,0.0
55673.0,STARLINK-5463,PAYLOAD,2024-06-26 11:12:38,14.98333465,0.000299,70.0013,290.6895,259.459,100.6232,-4.8278e-07,-9.9e-07,0.0,0 STARLINK-5463,1 55673U 23021AX  24178.46711002 -.00000099  00000-0 -48278-6 0  9992,2 55673  70.0013 290.6895 0002990 259.4590 100.6232 14.98333465 76230,6950.182,96.107,574.125,569.969,0.0
